{
    "links": {
        "self": "http://www.neowsapp.com/rest/v1/neo/3735196?api_key=iIulBulltgU6a56xZRHN4H3l9WmuAYTsLGpBGhQ2"
    },
    "id": "3735196",
    "neo_reference_id": "3735196",
    "name": "(2015 VT142)",
    "designation": "2015 VT142",
    "nasa_jpl_url": "http://ssd.jpl.nasa.gov/sbdb.cgi?sstr=3735196",
    "absolute_magnitude_h": 26.3,
    "estimated_diameter": {
        "kilometers": {
            "estimated_diameter_min": 0.0146067964,
            "estimated_diameter_max": 0.0326617897
        },
        "meters": {
            "estimated_diameter_min": 14.6067964271,
            "estimated_diameter_max": 32.6617897446
        },
        "miles": {
            "estimated_diameter_min": 0.0090762397,
            "estimated_diameter_max": 0.020295089
        },
        "feet": {
            "estimated_diameter_min": 47.92256199,
            "estimated_diameter_max": 107.1581062656
        }
    },
    "is_potentially_hazardous_asteroid": false,
    "close_approach_data": [
        {
            "close_approach_date": "2015-10-28",
            "close_approach_date_full": "2015-Oct-28 21:23",
            "epoch_date_close_approach": 1446067380000,
            "relative_velocity": {
                "kilometers_per_second": "7.8754619525",
                "kilometers_per_hour": "28351.6630289518",
                "miles_per_hour": "17616.6208415173"
            },
            "miss_distance": {
                "astronomical": "0.0650986272",
                "lunar": "25.3233659808",
                "kilometers": "9738615.969044064",
                "miles": "6051295.3608695232"
            },
            "orbiting_body": "Earth"
        }
    ],
    "orbital_data": {
        "orbit_id": "5",
        "orbit_determination_date": "2017-04-06 08:30:36",
        "first_observation_date": "2015-11-14",
        "last_observation_date": "2015-11-20",
        "data_arc_in_days": 6,
        "observations_used": 20,
        "orbit_uncertainty": "9",
        "minimum_orbit_intersection": ".0431145",
        "jupiter_tisserand_invariant": "3.244",
        "epoch_osculation": "2457342.5",
        "eccentricity": ".5761571425660124",
        "semi_major_axis": "2.45087897512751",
        "inclination": "2.119578194625118",
        "ascending_node_longitude": "41.38046402628052",
        "orbital_period": "1401.461676221471",
        "perihelion_distance": "1.038787548042927",
        "perihelion_argument": "339.4414495044338",
        "aphelion_distance": "3.862970402212093",
        "perihelion_time": "2457314.027229833004",
        "mean_anomaly": "7.313933326920841",
        "mean_motion": ".256874666006286",
        "equinox": "J2000",
        "orbit_class": {
            "orbit_class_type": "AMO",
            "orbit_class_description": "Near-Earth asteroid orbits similar to that of 1221 Amor",
            "orbit_class_range": "1.017 AU < q (perihelion) < 1.3 AU"
        }
    },
    "is_sentry_object": false
}